FENGYUN 1C DEB          
1 29941U 99025JP  17345.58688910  .00001949  00000-0  41891-3 0  9994
2 29941  98.9058 203.3854 0072128  47.7781   5.1383 14.58231004573918
